{
"type": "FeatureCollection",
"name": "geocoded_locations",
"crs": { "type": "name", "properties": { "name": "urn:ogc:def:crs:OGC:1.3:CRS84" } },
"features": [
{ "type": "Feature", "properties": { "location": "Boston, MA", "lat": 42.3555076, "lon": -71.0565364 }, "geometry": { "type": "Point", "coordinates": [ -71.0565364, 42.3555076 ] } },
{ "type": "Feature", "properties": { "location": "Hampton, VA", "lat": 37.0298687, "lon": -76.3452218 }, "geometry": { "type": "Point", "coordinates": [ -76.3452218, 37.0298687 ] } },
{ "type": "Feature", "properties": { "location": "Maryland", "lat": 39.0457549, "lon": -76.6412712 }, "geometry": { "type": "Point", "coordinates": [ -76.6412712, 39.0457549 ] } },
{ "type": "Feature", "properties": { "location": "Virginia", "lat": 37.4315734, "lon": -78.6568942 }, "geometry": { "type": "Point", "coordinates": [ -78.6568942, 37.4315734 ] } },
{ "type": "Feature", "properties": { "location": "Cambridge, MA", "lat": 42.3666036, "lon": -71.1056916 }, "geometry": { "type": "Point", "coordinates": [ -71.1056916, 42.3666036 ] } },
{ "type": "Feature", "properties": { "location": "West Africa", "lat": 13.531665, "lon": -2.4604145 }, "geometry": { "type": "Point", "coordinates": [ -2.4604145, 13.531665 ] } },
{ "type": "Feature", "properties": { "location": "Nigeria", "lat": 9.081999, "lon": 8.675277 }, "geometry": { "type": "Point", "coordinates": [ 8.675277, 9.081999 ] } },
{ "type": "Feature", "properties": { "location": "Gloucester, VA", "lat": 37.4098631, "lon": -76.5266174 }, "geometry": { "type": "Point", "coordinates": [ -76.5266174, 37.4098631 ] } },
{ "type": "Feature", "properties": { "location": "Brazil", "lat": -14.235004, "lon": -51.92528 }, "geometry": { "type": "Point", "coordinates": [ -51.92528, -14.235004 ] } },
{ "type": "Feature", "properties": { "location": "Massachusetts", "lat": 42.4072107, "lon": -71.3824374 }, "geometry": { "type": "Point", "coordinates": [ -71.3824374, 42.4072107 ] } },
{ "type": "Feature", "properties": { "location": "Southampton County, VA", "lat": 36.6788512, "lon": -77.1024902 }, "geometry": { "type": "Point", "coordinates": [ -77.1024902, 36.6788512 ] } },
{ "type": "Feature", "properties": { "location": "Oregon", "lat": 43.8041334, "lon": -120.5542012 }, "geometry": { "type": "Point", "coordinates": [ -120.5542012, 43.8041334 ] } },
{ "type": "Feature", "properties": { "location": "Boykins, VA", "lat": 36.583207, "lon": -77.1999675 }, "geometry": { "type": "Point", "coordinates": [ -77.1999675, 36.583207 ] } },
{ "type": "Feature", "properties": { "location": "Barbados", "lat": 13.193887, "lon": -59.543198 }, "geometry": { "type": "Point", "coordinates": [ -59.543198, 13.193887 ] } },
{ "type": "Feature", "properties": { "location": "Port Chester, NY", "lat": 41.0017643, "lon": -73.6656834 }, "geometry": { "type": "Point", "coordinates": [ -73.6656834, 41.0017643 ] } },
{ "type": "Feature", "properties": { "location": "Chickamauga, GA", "lat": 34.8711879, "lon": -85.2907896 }, "geometry": { "type": "Point", "coordinates": [ -85.2907896, 34.8711879 ] } },
{ "type": "Feature", "properties": { "location": "New Jersey", "lat": 40.0583238, "lon": -74.4056612 }, "geometry": { "type": "Point", "coordinates": [ -74.4056612, 40.0583238 ] } },
{ "type": "Feature", "properties": { "location": "Greater Boston Area, MA", "lat": 42.3600709, "lon": -71.0588305 }, "geometry": { "type": "Point", "coordinates": [ -71.0588305, 42.3600709 ] } },
{ "type": "Feature", "properties": { "location": "Selma, AL", "lat": 32.4073589, "lon": -87.0211007 }, "geometry": { "type": "Point", "coordinates": [ -87.0211007, 32.4073589 ] } },
{ "type": "Feature", "properties": { "location": "Dallas County, AL", "lat": 32.2332138, "lon": -87.1422895 }, "geometry": { "type": "Point", "coordinates": [ -87.1422895, 32.2332138 ] } },
{ "type": "Feature", "properties": { "location": "North Carolina", "lat": 35.7595731, "lon": -79.0192997 }, "geometry": { "type": "Point", "coordinates": [ -79.0192997, 35.7595731 ] } },
{ "type": "Feature", "properties": { "location": "Greater Boston, MA", "lat": 42.3600709, "lon": -71.0588305 }, "geometry": { "type": "Point", "coordinates": [ -71.0588305, 42.3600709 ] } },
{ "type": "Feature", "properties": { "location": "Charles River, Cambridge MA", "lat": 42.3666036, "lon": -71.1056916 }, "geometry": { "type": "Point", "coordinates": [ -71.1056916, 42.3666036 ] } },
{ "type": "Feature", "properties": { "location": "Arlington, MA", "lat": 42.4153925, "lon": -71.1564729 }, "geometry": { "type": "Point", "coordinates": [ -71.1564729, 42.4153925 ] } },
{ "type": "Feature", "properties": { "location": "Howard St Cambridge, MA", "lat": 42.3653111, "lon": -71.1108597 }, "geometry": { "type": "Point", "coordinates": [ -71.1108597, 42.3653111 ] } },
{ "type": "Feature", "properties": { "location": "Callender St Cambridge, MA", "lat": 42.3653682, "lon": -71.112265 }, "geometry": { "type": "Point", "coordinates": [ -71.112265, 42.3653682 ] } },
{ "type": "Feature", "properties": { "location": "New Haven, CT", "lat": 41.308274, "lon": -72.9278835 }, "geometry": { "type": "Point", "coordinates": [ -72.9278835, 41.308274 ] } },
{ "type": "Feature", "properties": { "location": "Minnesota", "lat": 46.729553, "lon": -94.6858998 }, "geometry": { "type": "Point", "coordinates": [ -94.6858998, 46.729553 ] } },
{ "type": "Feature", "properties": { "location": "West Virginia", "lat": 38.5976262, "lon": -80.4549026 }, "geometry": { "type": "Point", "coordinates": [ -80.4549026, 38.5976262 ] } },
{ "type": "Feature", "properties": { "location": "Baltimore, MD", "lat": 39.2905023, "lon": -76.6104072 }, "geometry": { "type": "Point", "coordinates": [ -76.6104072, 39.2905023 ] } },
{ "type": "Feature", "properties": { "location": "New Hampshire", "lat": 43.1938516, "lon": -71.5723953 }, "geometry": { "type": "Point", "coordinates": [ -71.5723953, 43.1938516 ] } },
{ "type": "Feature", "properties": { "location": "Magee St Cambridge, MA", "lat": 42.3663178, "lon": -71.112407 }, "geometry": { "type": "Point", "coordinates": [ -71.112407, 42.3663178 ] } },
{ "type": "Feature", "properties": { "location": "Central Square Cambridge, MA", "lat": 42.3650455, "lon": -71.1025628 }, "geometry": { "type": "Point", "coordinates": [ -71.1025628, 42.3650455 ] } },
{ "type": "Feature", "properties": { "location": "Columbia St Cambridge, MA", "lat": 42.3688348, "lon": -71.0968172 }, "geometry": { "type": "Point", "coordinates": [ -71.0968172, 42.3688348 ] } },
{ "type": "Feature", "properties": { "location": "Caribbean", "lat": 21.4691137, "lon": -78.6568942 }, "geometry": { "type": "Point", "coordinates": [ -78.6568942, 21.4691137 ] } },
{ "type": "Feature", "properties": { "location": "Connecticut", "lat": 41.6032207, "lon": -73.087749 }, "geometry": { "type": "Point", "coordinates": [ -73.087749, 41.6032207 ] } },
{ "type": "Feature", "properties": { "location": "Somerville, MA", "lat": 42.3875968, "lon": -71.0994968 }, "geometry": { "type": "Point", "coordinates": [ -71.0994968, 42.3875968 ] } },
{ "type": "Feature", "properties": { "location": "Belmont, MA", "lat": 42.3956405, "lon": -71.1776114 }, "geometry": { "type": "Point", "coordinates": [ -71.1776114, 42.3956405 ] } },
{ "type": "Feature", "properties": { "location": "South Boston, MA", "lat": 42.3354829, "lon": -71.0456735 }, "geometry": { "type": "Point", "coordinates": [ -71.0456735, 42.3354829 ] } },
{ "type": "Feature", "properties": { "location": "New York", "lat": 40.7127753, "lon": -74.0059728 }, "geometry": { "type": "Point", "coordinates": [ -74.0059728, 40.7127753 ] } },
{ "type": "Feature", "properties": { "location": "Louisiana", "lat": 30.5190775, "lon": -91.5208624 }, "geometry": { "type": "Point", "coordinates": [ -91.5208624, 30.5190775 ] } },
{ "type": "Feature", "properties": { "location": "Chicago, IL", "lat": 41.88325, "lon": -87.6323879 }, "geometry": { "type": "Point", "coordinates": [ -87.6323879, 41.88325 ] } },
{ "type": "Feature", "properties": { "location": "Kansas", "lat": 39.011902, "lon": -98.4842465 }, "geometry": { "type": "Point", "coordinates": [ -98.4842465, 39.011902 ] } },
{ "type": "Feature", "properties": { "location": "Concord Ave Cambridge, MA", "lat": 42.3858188, "lon": -71.1385347 }, "geometry": { "type": "Point", "coordinates": [ -71.1385347, 42.3858188 ] } },
{ "type": "Feature", "properties": { "location": "Huron Ave Cambridge, MA", "lat": 42.3805937, "lon": -71.1418095 }, "geometry": { "type": "Point", "coordinates": [ -71.1418095, 42.3805937 ] } },
{ "type": "Feature", "properties": { "location": "Concord, MA", "lat": 42.4603719, "lon": -71.3489484 }, "geometry": { "type": "Point", "coordinates": [ -71.3489484, 42.4603719 ] } },
{ "type": "Feature", "properties": { "location": "Ohio", "lat": 40.4172871, "lon": -82.907123 }, "geometry": { "type": "Point", "coordinates": [ -82.907123, 40.4172871 ] } },
{ "type": "Feature", "properties": { "location": "Ghana", "lat": 7.946527, "lon": -1.023194 }, "geometry": { "type": "Point", "coordinates": [ -1.023194, 7.946527 ] } },
{ "type": "Feature", "properties": { "location": "England", "lat": 52.838164010157932, "lon": -2.327480843616569 }, "geometry": { "type": "Point", "coordinates": [ -2.327480843616569, 52.838164010157932 ] } },
{ "type": "Feature", "properties": { "location": "Africa", "lat": -8.783195, "lon": 34.508523 }, "geometry": { "type": "Point", "coordinates": [ 34.508523, -8.783195 ] } },
{ "type": "Feature", "properties": { "location": "Ethiopia", "lat": 9.145, "lon": 40.489673 }, "geometry": { "type": "Point", "coordinates": [ 40.489673, 9.145 ] } },
{ "type": "Feature", "properties": { "location": "Awash River, Ethiopia", "lat": 9.6271789475506289, "lon": 40.039770883981937 }, "geometry": { "type": "Point", "coordinates": [ 40.039770883981937, 9.627178947550629 ] } },
{ "type": "Feature", "properties": { "location": "Kenya", "lat": -0.023559, "lon": 37.906193 }, "geometry": { "type": "Point", "coordinates": [ 37.906193, -0.023559 ] } },
{ "type": "Feature", "properties": { "location": "Uganda", "lat": 1.373333, "lon": 32.290275 }, "geometry": { "type": "Point", "coordinates": [ 32.290275, 1.373333 ] } },
{ "type": "Feature", "properties": { "location": "Europe", "lat": 54.5259614, "lon": 15.2551187 }, "geometry": { "type": "Point", "coordinates": [ 15.2551187, 54.5259614 ] } },
{ "type": "Feature", "properties": { "location": "North America", "lat": 54.5259614, "lon": -105.2551187 }, "geometry": { "type": "Point", "coordinates": [ -105.2551187, 54.5259614 ] } },
{ "type": "Feature", "properties": { "location": "Mexico", "lat": 23.634501, "lon": -102.552784 }, "geometry": { "type": "Point", "coordinates": [ -102.552784, 23.634501 ] } },
{ "type": "Feature", "properties": { "location": "Vermont", "lat": 44.5588028, "lon": -72.5778415 }, "geometry": { "type": "Point", "coordinates": [ -72.5778415, 44.5588028 ] } },
{ "type": "Feature", "properties": { "location": "United States", "lat": 38.7945952, "lon": -106.5348379 }, "geometry": { "type": "Point", "coordinates": [ -106.5348379, 38.7945952 ] } },
{ "type": "Feature", "properties": { "location": "Harvard Square Cambridge, MA", "lat": 42.373465, "lon": -71.1189467 }, "geometry": { "type": "Point", "coordinates": [ -71.1189467, 42.373465 ] } },
{ "type": "Feature", "properties": { "location": "South Shore, MA", "lat": 42.4072107, "lon": -71.3824374 }, "geometry": { "type": "Point", "coordinates": [ -71.3824374, 42.4072107 ] } },
{ "type": "Feature", "properties": { "location": "Linnaean St Cambridge, MA", "lat": 42.3836764, "lon": -71.1232015 }, "geometry": { "type": "Point", "coordinates": [ -71.1232015, 42.3836764 ] } },
{ "type": "Feature", "properties": { "location": "Agassiz St Cambridge, MA", "lat": 42.3850263, "lon": -71.1217128 }, "geometry": { "type": "Point", "coordinates": [ -71.1217128, 42.3850263 ] } },
{ "type": "Feature", "properties": { "location": "Porter Square Cambridge, MA", "lat": 42.3913695, "lon": -71.1232582 }, "geometry": { "type": "Point", "coordinates": [ -71.1232582, 42.3913695 ] } },
{ "type": "Feature", "properties": { "location": "Jacksonville, FL", "lat": 30.3297566, "lon": -81.6591529 }, "geometry": { "type": "Point", "coordinates": [ -81.6591529, 30.3297566 ] } },
{ "type": "Feature", "properties": { "location": "Caribbean Islands", "lat": 21.4691137, "lon": -78.6568942 }, "geometry": { "type": "Point", "coordinates": [ -78.6568942, 21.4691137 ] } },
{ "type": "Feature", "properties": { "location": "Southampton, VA", "lat": 36.6788512, "lon": -77.1024902 }, "geometry": { "type": "Point", "coordinates": [ -77.1024902, 36.6788512 ] } },
{ "type": "Feature", "properties": { "location": "Morocco", "lat": 31.791702, "lon": -7.09262 }, "geometry": { "type": "Point", "coordinates": [ -7.09262, 31.791702 ] } },
{ "type": "Feature", "properties": { "location": "Egypt", "lat": 26.820553, "lon": 30.802498 }, "geometry": { "type": "Point", "coordinates": [ 30.802498, 26.820553 ] } },
{ "type": "Feature", "properties": { "location": "Sudan", "lat": 12.862807, "lon": 30.217636 }, "geometry": { "type": "Point", "coordinates": [ 30.217636, 12.862807 ] } },
{ "type": "Feature", "properties": { "location": "Congo", "lat": -4.038333, "lon": 21.758664 }, "geometry": { "type": "Point", "coordinates": [ 21.758664, -4.038333 ] } }
]
}
